QIANFAN-52              
1 62253U 24232S   26062.90320863  .00000073  00000+0  94284-4 0  9998
2 62253  89.0050  32.9136 0014255 325.0596  34.9618 13.51000577 78907
QIANFAN-53              
1 62254U 24232T   26062.95667111  .00000071  00000+0  92183-4 0  9998
2 62254  89.0057  33.0188 0013181 326.6833  33.3487 13.51003353 78870
QIANFAN-54              
1 62255U 24232U   26062.92378567  .00000079  00000+0  10438-3 0  9990
2 62255  89.0049  32.6936 0003215  41.7488 318.3908 13.51002756110378
QIANFAN-55              
1 62785U 25016A   26062.94982798  .00000054  00000+0  64118-4 0  9996
2 62785  88.9694  94.8089 0019391 112.1175 248.2037 13.50996130 58155
QIANFAN-56              
1 62786U 25016B   26062.89213867  .00000067  00000+0  84858-4 0  9992
2 62786  88.9667  94.6293 0018018 114.2371 246.0665 13.50998065 58193
QIANFAN-57              
1 62787U 25016C   26062.92511517  .00000073  00000+0  95000-4 0  9998
2 62787  88.9698  94.8047 0001358  97.3360 262.7946 13.50996999 58163
QIANFAN-58              
1 62788U 25016D   26062.89625105  .00000081  00000+0  10714-3 0  9991
2 62788  88.9668  94.6142 0015990 107.3275 252.9627 13.50998600 58202
QIANFAN-59              
1 62789U 25016E   26062.99514931  .00000070  00000+0  88799-4 0  9994
2 62789  88.9691  94.6970 0016329 110.4144 249.8763 13.50994521 58210
QIANFAN-60              
1 62790U 25016F   26062.95401238  .00000054  00000+0  64348-4 0  9993
2 62790  88.9672  94.6572 0017904 107.5611 252.7498 13.50992430 58197
QIANFAN-61              
1 62791U 25016G   26062.91287012  .00000063  00000+0  78397-4 0  9991
2 62791  88.9740  94.8797 0016828 106.9957 253.3040 13.50993797 58204
QIANFAN-62              
1 62792U 25016H   26062.99098177  .00000065  00000+0  80992-4 0  9998
2 62792  88.9686  94.6960 0018209 107.2255 253.0891 13.50996512 58203
QIANFAN-63              
1 62793U 25016J   26062.94163822  .00000063  00000+0  78198-4 0  9997
2 62793  88.9693  94.6582 0018233 112.1460 248.1628 13.50995106 58236
QIANFAN-64              
1 62794U 25016K   26062.90875824  .00000051  00000+0  60426-4 0  9998
2 62794  88.9683  94.6252 0016197 106.1016 254.1919 13.50998682 58228
QIANFAN-65              
1 62795U 25016L   26062.90455404  .00000066  00000+0  82929-4 0  9995
2 62795  88.9676  94.6483 0016057 107.2884 253.0026 13.51008685 58208
QIANFAN-66              
1 62796U 25016M   26062.93334577  .00000066  00000+0  82550-4 0  9996
2 62796  88.9695  94.6314 0017174 103.5026 256.8041 13.50996819 58258
QIANFAN-67              
1 62797U 25016N   26062.93740371  .00000061  00000+0  75874-4 0  9996
2 62797  88.9686  94.6486 0017111 109.5584 250.7416 13.50995160 58229
QIANFAN-68              
1 62798U 25016P   26062.92932737  .00000079  00000+0  10279-3 0  9991
2 62798  88.9689  94.6976 0017175 108.0087 252.2938 13.51005172 58209
