[{"OBJECT_NAME":"QIANFAN-52","OBJECT_ID":"2024-232S","EPOCH":"2026-03-03T21:40:37.225632","MEAN_MOTION":13.51000577,"ECCENTRICITY":0.00142552,"INCLINATION":89.005,"RA_OF_ASC_NODE":32.9136,"ARG_OF_PERICENTER":325.0596,"MEAN_ANOMALY":34.9618,"EPHEMERIS_TYPE":0,"CLASSIFICATION_TYPE":"U","NORAD_CAT_ID":62253,"ELEMENT_SET_NO":999,"REV_AT_EPOCH":7890,"BSTAR":9.4283886e-5,"MEAN_MOTION_DOT":7.3e-7,"MEAN_MOTION_DDOT":0},{"OBJECT_NAME":"QIANFAN-53","OBJECT_ID":"2024-232T","EPOCH":"2026-03-03T22:57:36.383904","MEAN_MOTION":13.51003353,"ECCENTRICITY":0.00131817,"INCLINATION":89.0057,"RA_OF_ASC_NODE":33.0188,"ARG_OF_PERICENTER":326.6833,"MEAN_ANOMALY":33.3487,"EPHEMERIS_TYPE":0,"CLASSIFICATION_TYPE":"U","NORAD_CAT_ID":62254,"ELEMENT_SET_NO":999,"REV_AT_EPOCH":7887,"BSTAR":9.2182666e-5,"MEAN_MOTION_DOT":7.1e-7,"MEAN_MOTION_DDOT":0},{"OBJECT_NAME":"QIANFAN-54","OBJECT_ID":"2024-232U","EPOCH":"2026-03-03T22:10:15.081888","MEAN_MOTION":13.51002756,"ECCENTRICITY":0.00032154,"INCLINATION":89.0049,"RA_OF_ASC_NODE":32.6936,"ARG_OF_PERICENTER":41.7488,"MEAN_ANOMALY":318.3908,"EPHEMERIS_TYPE":0,"CLASSIFICATION_TYPE":"U","NORAD_CAT_ID":62255,"ELEMENT_SET_NO":999,"REV_AT_EPOCH":11037,"BSTAR":0.00010438392,"MEAN_MOTION_DOT":7.9e-7,"MEAN_MOTION_DDOT":0},{"OBJECT_NAME":"QIANFAN-55","OBJECT_ID":"2025-016A","EPOCH":"2026-03-03T22:47:45.137472","MEAN_MOTION":13.5099613,"ECCENTRICITY":0.00193914,"INCLINATION":88.9694,"RA_OF_ASC_NODE":94.8089,"ARG_OF_PERICENTER":112.1175,"MEAN_ANOMALY":248.2037,"EPHEMERIS_TYPE":0,"CLASSIFICATION_TYPE":"U","NORAD_CAT_ID":62785,"ELEMENT_SET_NO":999,"REV_AT_EPOCH":5815,"BSTAR":6.4117561e-5,"MEAN_MOTION_DOT":5.4e-7,"MEAN_MOTION_DDOT":0},{"OBJECT_NAME":"QIANFAN-56","OBJECT_ID":"2025-016B","EPOCH":"2026-03-03T21:24:40.781088","MEAN_MOTION":13.50998065,"ECCENTRICITY":0.00180181,"INCLINATION":88.9667,"RA_OF_ASC_NODE":94.6293,"ARG_OF_PERICENTER":114.2371,"MEAN_ANOMALY":246.0665,"EPHEMERIS_TYPE":0,"CLASSIFICATION_TYPE":"U","NORAD_CAT_ID":62786,"ELEMENT_SET_NO":999,"REV_AT_EPOCH":5819,"BSTAR":8.4857756e-5,"MEAN_MOTION_DOT":6.7e-7,"MEAN_MOTION_DDOT":0},{"OBJECT_NAME":"QIANFAN-57","OBJECT_ID":"2025-016C","EPOCH":"2026-03-03T22:12:09.950688","MEAN_MOTION":13.50996999,"ECCENTRICITY":0.00013589,"INCLINATION":88.9698,"RA_OF_ASC_NODE":94.8047,"ARG_OF_PERICENTER":97.336,"MEAN_ANOMALY":262.7946,"EPHEMERIS_TYPE":0,"CLASSIFICATION_TYPE":"U","NORAD_CAT_ID":62787,"ELEMENT_SET_NO":999,"REV_AT_EPOCH":5816,"BSTAR":9.5000191e-5,"MEAN_MOTION_DOT":7.3e-7,"MEAN_MOTION_DDOT":0},{"OBJECT_NAME":"QIANFAN-58","OBJECT_ID":"2025-016D","EPOCH":"2026-03-03T21:30:36.090720","MEAN_MOTION":13.509986,"ECCENTRICITY":0.00159901,"INCLINATION":88.9668,"RA_OF_ASC_NODE":94.6142,"ARG_OF_PERICENTER":107.3275,"MEAN_ANOMALY":252.9627,"EPHEMERIS_TYPE":0,"CLASSIFICATION_TYPE":"U","NORAD_CAT_ID":62788,"ELEMENT_SET_NO":999,"REV_AT_EPOCH":5820,"BSTAR":0.00010713611,"MEAN_MOTION_DOT":8.1e-7,"MEAN_MOTION_DDOT":0},{"OBJECT_NAME":"QIANFAN-59","OBJECT_ID":"2025-016E","EPOCH":"2026-03-03T23:53:00.900384","MEAN_MOTION":13.50994521,"ECCENTRICITY":0.00163298,"INCLINATION":88.9691,"RA_OF_ASC_NODE":94.697,"ARG_OF_PERICENTER":110.4144,"MEAN_ANOMALY":249.8763,"EPHEMERIS_TYPE":0,"CLASSIFICATION_TYPE":"U","NORAD_CAT_ID":62789,"ELEMENT_SET_NO":999,"REV_AT_EPOCH":5821,"BSTAR":8.8798984e-5,"MEAN_MOTION_DOT":7.0e-7,"MEAN_MOTION_DDOT":0},{"OBJECT_NAME":"QIANFAN-60","OBJECT_ID":"2025-016F","EPOCH":"2026-03-03T22:53:46.669632","MEAN_MOTION":13.5099243,"ECCENTRICITY":0.00179041,"INCLINATION":88.9672,"RA_OF_ASC_NODE":94.6572,"ARG_OF_PERICENTER":107.5611,"MEAN_ANOMALY":252.7498,"EPHEMERIS_TYPE":0,"CLASSIFICATION_TYPE":"U","NORAD_CAT_ID":62790,"ELEMENT_SET_NO":999,"REV_AT_EPOCH":5819,"BSTAR":6.434812e-5,"MEAN_MOTION_DOT":5.4e-7,"MEAN_MOTION_DDOT":0},{"OBJECT_NAME":"QIANFAN-61","OBJECT_ID":"2025-016G","EPOCH":"2026-03-03T21:54:31.978368","MEAN_MOTION":13.50993797,"ECCENTRICITY":0.00168284,"INCLINATION":88.974,"RA_OF_ASC_NODE":94.8797,"ARG_OF_PERICENTER":106.9957,"MEAN_ANOMALY":253.304,"EPHEMERIS_TYPE":0,"CLASSIFICATION_TYPE":"U","NORAD_CAT_ID":62791,"ELEMENT_SET_NO":999,"REV_AT_EPOCH":5820,"BSTAR":7.8396877e-5,"MEAN_MOTION_DOT":6.3e-7,"MEAN_MOTION_DDOT":0},{"OBJECT_NAME":"QIANFAN-62","OBJECT_ID":"2025-016H","EPOCH":"2026-03-03T23:47:00.824928","MEAN_MOTION":13.50996512,"ECCENTRICITY":0.00182091,"INCLINATION":88.9686,"RA_OF_ASC_NODE":94.696,"ARG_OF_PERICENTER":107.2255,"MEAN_ANOMALY":253.0891,"EPHEMERIS_TYPE":0,"CLASSIFICATION_TYPE":"U","NORAD_CAT_ID":62792,"ELEMENT_SET_NO":999,"REV_AT_EPOCH":5820,"BSTAR":8.0991618e-5,"MEAN_MOTION_DOT":6.5e-7,"MEAN_MOTION_DDOT":0},{"OBJECT_NAME":"QIANFAN-63","OBJECT_ID":"2025-016J","EPOCH":"2026-03-03T22:35:57.542208","MEAN_MOTION":13.50995106,"ECCENTRICITY":0.00182335,"INCLINATION":88.9693,"RA_OF_ASC_NODE":94.6582,"ARG_OF_PERICENTER":112.146,"MEAN_ANOMALY":248.1628,"EPHEMERIS_TYPE":0,"CLASSIFICATION_TYPE":"U","NORAD_CAT_ID":62793,"ELEMENT_SET_NO":999,"REV_AT_EPOCH":5823,"BSTAR":7.8198421e-5,"MEAN_MOTION_DOT":6.3e-7,"MEAN_MOTION_DDOT":0},{"OBJECT_NAME":"QIANFAN-64","OBJECT_ID":"2025-016K","EPOCH":"2026-03-03T21:48:36.711936","MEAN_MOTION":13.50998682,"ECCENTRICITY":0.0016197,"INCLINATION":88.9683,"RA_OF_ASC_NODE":94.6252,"ARG_OF_PERICENTER":106.1016,"MEAN_ANOMALY":254.1919,"EPHEMERIS_TYPE":0,"CLASSIFICATION_TYPE":"U","NORAD_CAT_ID":62794,"ELEMENT_SET_NO":999,"REV_AT_EPOCH":5822,"BSTAR":6.0425741e-5,"MEAN_MOTION_DOT":5.1e-7,"MEAN_MOTION_DDOT":0},{"OBJECT_NAME":"QIANFAN-65","OBJECT_ID":"2025-016L","EPOCH":"2026-03-03T21:42:33.469056","MEAN_MOTION":13.51008685,"ECCENTRICITY":0.00160577,"INCLINATION":88.9676,"RA_OF_ASC_NODE":94.6483,"ARG_OF_PERICENTER":107.2884,"MEAN_ANOMALY":253.0026,"EPHEMERIS_TYPE":0,"CLASSIFICATION_TYPE":"U","NORAD_CAT_ID":62795,"ELEMENT_SET_NO":999,"REV_AT_EPOCH":5820,"BSTAR":8.2929269e-5,"MEAN_MOTION_DOT":6.6e-7,"MEAN_MOTION_DDOT":0},{"OBJECT_NAME":"QIANFAN-66","OBJECT_ID":"2025-016M","EPOCH":"2026-03-03T22:24:01.074528","MEAN_MOTION":13.50996819,"ECCENTRICITY":0.00171741,"INCLINATION":88.9695,"RA_OF_ASC_NODE":94.6314,"ARG_OF_PERICENTER":103.5026,"MEAN_ANOMALY":256.8041,"EPHEMERIS_TYPE":0,"CLASSIFICATION_TYPE":"U","NORAD_CAT_ID":62796,"ELEMENT_SET_NO":999,"REV_AT_EPOCH":5825,"BSTAR":8.2549731e-5,"MEAN_MOTION_DOT":6.6e-7,"MEAN_MOTION_DDOT":0},{"OBJECT_NAME":"QIANFAN-67","OBJECT_ID":"2025-016N","EPOCH":"2026-03-03T22:29:51.680544","MEAN_MOTION":13.5099516,"ECCENTRICITY":0.00171113,"INCLINATION":88.9686,"RA_OF_ASC_NODE":94.6486,"ARG_OF_PERICENTER":109.5584,"MEAN_ANOMALY":250.7416,"EPHEMERIS_TYPE":0,"CLASSIFICATION_TYPE":"U","NORAD_CAT_ID":62797,"ELEMENT_SET_NO":999,"REV_AT_EPOCH":5822,"BSTAR":7.5873766e-5,"MEAN_MOTION_DOT":6.1e-7,"MEAN_MOTION_DDOT":0},{"OBJECT_NAME":"QIANFAN-68","OBJECT_ID":"2025-016P","EPOCH":"2026-03-03T22:18:13.884768","MEAN_MOTION":13.51005172,"ECCENTRICITY":0.0017175,"INCLINATION":88.9689,"RA_OF_ASC_NODE":94.6976,"ARG_OF_PERICENTER":108.0087,"MEAN_ANOMALY":252.2938,"EPHEMERIS_TYPE":0,"CLASSIFICATION_TYPE":"U","NORAD_CAT_ID":62798,"ELEMENT_SET_NO":999,"REV_AT_EPOCH":5820,"BSTAR":0.00010278904,"MEAN_MOTION_DOT":7.9e-7,"MEAN_MOTION_DDOT":0}]
